<?xml version="1.0" encoding="UTF-8"?>
<ndm xmlns:xsi="http://www.w3.org/2001/XMLSchema-instance" xsi:noNamespaceSchemaLocation="https://sanaregistry.org/r/ndmxml_unqualified/ndmxml-2.0.0-master-2.0.xsd">
<omm id="CCSDS_OMM_VERS" version="2.0">
<header><CREATION_DATE/><ORIGINATOR/></header><body><segment><metadata><OBJECT_NAME>ORBCOMM FM37</OBJECT_NAME><OBJECT_ID>2008-031E</OBJECT_ID><CENTER_NAME>EARTH</CENTER_NAME><REF_FRAME>TEME</REF_FRAME><TIME_SYSTEM>UTC</TIME_SYSTEM><MEAN_ELEMENT_THEORY>SGP4</MEAN_ELEMENT_THEORY></metadata><data><meanElements><EPOCH>2024-08-28T09:51:48.619296</EPOCH><MEAN_MOTION>14.77210697</MEAN_MOTION><ECCENTRICITY>.000571</ECCENTRICITY><INCLINATION>48.4398</INCLINATION><RA_OF_ASC_NODE>293.1512</RA_OF_ASC_NODE><ARG_OF_PERICENTER>210.4360</ARG_OF_PERICENTER><MEAN_ANOMALY>163.4958</MEAN_ANOMALY></meanElements><tleParameters><EPHEMERIS_TYPE>0</EPHEMERIS_TYPE><CLASSIFICATION_TYPE>U</CLASSIFICATION_TYPE><NORAD_CAT_ID>33064</NORAD_CAT_ID><ELEMENT_SET_NO>999</ELEMENT_SET_NO><REV_AT_EPOCH>87072</REV_AT_EPOCH><BSTAR>.6502E-3</BSTAR><MEAN_MOTION_DOT>.445E-4</MEAN_MOTION_DOT><MEAN_MOTION_DDOT>0</MEAN_MOTION_DDOT></tleParameters></data></segment></body></omm>
<omm id="CCSDS_OMM_VERS" version="2.0">
<header><CREATION_DATE/><ORIGINATOR/></header><body><segment><metadata><OBJECT_NAME>ORBCOMM FM109</OBJECT_NAME><OBJECT_ID>2014-040A</OBJECT_ID><CENTER_NAME>EARTH</CENTER_NAME><REF_FRAME>TEME</REF_FRAME><TIME_SYSTEM>UTC</TIME_SYSTEM><MEAN_ELEMENT_THEORY>SGP4</MEAN_ELEMENT_THEORY></metadata><data><meanElements><EPOCH>2024-08-28T12:22:14.691648</EPOCH><MEAN_MOTION>14.57043401</MEAN_MOTION><ECCENTRICITY>.0001203</ECCENTRICITY><INCLINATION>47.0037</INCLINATION><RA_OF_ASC_NODE>317.5045</RA_OF_ASC_NODE><ARG_OF_PERICENTER>12.6557</ARG_OF_PERICENTER><MEAN_ANOMALY>347.4358</MEAN_ANOMALY></meanElements><tleParameters><EPHEMERIS_TYPE>0</EPHEMERIS_TYPE><CLASSIFICATION_TYPE>U</CLASSIFICATION_TYPE><NORAD_CAT_ID>40086</NORAD_CAT_ID><ELEMENT_SET_NO>999</ELEMENT_SET_NO><REV_AT_EPOCH>53836</REV_AT_EPOCH><BSTAR>.70289E-3</BSTAR><MEAN_MOTION_DOT>.3027E-4</MEAN_MOTION_DOT><MEAN_MOTION_DDOT>0</MEAN_MOTION_DDOT></tleParameters></data></segment></body></omm>
<omm id="CCSDS_OMM_VERS" version="2.0">
<header><CREATION_DATE/><ORIGINATOR/></header><body><segment><metadata><OBJECT_NAME>ORBCOMM FM107</OBJECT_NAME><OBJECT_ID>2014-040B</OBJECT_ID><CENTER_NAME>EARTH</CENTER_NAME><REF_FRAME>TEME</REF_FRAME><TIME_SYSTEM>UTC</TIME_SYSTEM><MEAN_ELEMENT_THEORY>SGP4</MEAN_ELEMENT_THEORY></metadata><data><meanElements><EPOCH>2024-08-28T11:32:28.215168</EPOCH><MEAN_MOTION>14.57014734</MEAN_MOTION><ECCENTRICITY>.0001445</ECCENTRICITY><INCLINATION>47.0065</INCLINATION><RA_OF_ASC_NODE>318.6480</RA_OF_ASC_NODE><ARG_OF_PERICENTER>329.8270</ARG_OF_PERICENTER><MEAN_ANOMALY>30.2532</MEAN_ANOMALY></meanElements><tleParameters><EPHEMERIS_TYPE>0</EPHEMERIS_TYPE><CLASSIFICATION_TYPE>U</CLASSIFICATION_TYPE><NORAD_CAT_ID>40087</NORAD_CAT_ID><ELEMENT_SET_NO>999</ELEMENT_SET_NO><REV_AT_EPOCH>53843</REV_AT_EPOCH><BSTAR>.45158E-3</BSTAR><MEAN_MOTION_DOT>.1883E-4</MEAN_MOTION_DOT><MEAN_MOTION_DDOT>0</MEAN_MOTION_DDOT></tleParameters></data></segment></body></omm>
<omm id="CCSDS_OMM_VERS" version="2.0">
<header><CREATION_DATE/><ORIGINATOR/></header><body><segment><metadata><OBJECT_NAME>ORBCOMM FM106</OBJECT_NAME><OBJECT_ID>2014-040C</OBJECT_ID><CENTER_NAME>EARTH</CENTER_NAME><REF_FRAME>TEME</REF_FRAME><TIME_SYSTEM>UTC</TIME_SYSTEM><MEAN_ELEMENT_THEORY>SGP4</MEAN_ELEMENT_THEORY></metadata><data><meanElements><EPOCH>2024-08-28T12:06:46.103328</EPOCH><MEAN_MOTION>14.67577714</MEAN_MOTION><ECCENTRICITY>.0017334</ECCENTRICITY><INCLINATION>47.0596</INCLINATION><RA_OF_ASC_NODE>163.4853</RA_OF_ASC_NODE><ARG_OF_PERICENTER>148.5185</ARG_OF_PERICENTER><MEAN_ANOMALY>211.6746</MEAN_ANOMALY></meanElements><tleParameters><EPHEMERIS_TYPE>0</EPHEMERIS_TYPE><CLASSIFICATION_TYPE>U</CLASSIFICATION_TYPE><NORAD_CAT_ID>40088</NORAD_CAT_ID><ELEMENT_SET_NO>999</ELEMENT_SET_NO><REV_AT_EPOCH>54045</REV_AT_EPOCH><BSTAR>.69171E-3</BSTAR><MEAN_MOTION_DOT>.3792E-4</MEAN_MOTION_DOT><MEAN_MOTION_DDOT>0</MEAN_MOTION_DDOT></tleParameters></data></segment></body></omm>
<omm id="CCSDS_OMM_VERS" version="2.0">
<header><CREATION_DATE/><ORIGINATOR/></header><body><segment><metadata><OBJECT_NAME>ORBCOMM FM111</OBJECT_NAME><OBJECT_ID>2014-040D</OBJECT_ID><CENTER_NAME>EARTH</CENTER_NAME><REF_FRAME>TEME</REF_FRAME><TIME_SYSTEM>UTC</TIME_SYSTEM><MEAN_ELEMENT_THEORY>SGP4</MEAN_ELEMENT_THEORY></metadata><data><meanElements><EPOCH>2024-08-28T04:00:56.027232</EPOCH><MEAN_MOTION>14.82704755</MEAN_MOTION><ECCENTRICITY>.0033621</ECCENTRICITY><INCLINATION>47.0044</INCLINATION><RA_OF_ASC_NODE>53.0084</RA_OF_ASC_NODE><ARG_OF_PERICENTER>232.8219</ARG_OF_PERICENTER><MEAN_ANOMALY>126.9606</MEAN_ANOMALY></meanElements><tleParameters><EPHEMERIS_TYPE>0</EPHEMERIS_TYPE><CLASSIFICATION_TYPE>U</CLASSIFICATION_TYPE><NORAD_CAT_ID>40089</NORAD_CAT_ID><ELEMENT_SET_NO>999</ELEMENT_SET_NO><REV_AT_EPOCH>54668</REV_AT_EPOCH><BSTAR>.95385E-3</BSTAR><MEAN_MOTION_DOT>.7658E-4</MEAN_MOTION_DOT><MEAN_MOTION_DDOT>0</MEAN_MOTION_DDOT></tleParameters></data></segment></body></omm>
<omm id="CCSDS_OMM_VERS" version="2.0">
<header><CREATION_DATE/><ORIGINATOR/></header><body><segment><metadata><OBJECT_NAME>ORBCOMM FM104</OBJECT_NAME><OBJECT_ID>2014-040E</OBJECT_ID><CENTER_NAME>EARTH</CENTER_NAME><REF_FRAME>TEME</REF_FRAME><TIME_SYSTEM>UTC</TIME_SYSTEM><MEAN_ELEMENT_THEORY>SGP4</MEAN_ELEMENT_THEORY></metadata><data><meanElements><EPOCH>2024-08-28T13:36:23.228928</EPOCH><MEAN_MOTION>14.55473737</MEAN_MOTION><ECCENTRICITY>.0017601</ECCENTRICITY><INCLINATION>47.0072</INCLINATION><RA_OF_ASC_NODE>348.4124</RA_OF_ASC_NODE><ARG_OF_PERICENTER>305.7769</ARG_OF_PERICENTER><MEAN_ANOMALY>54.1479</MEAN_ANOMALY></meanElements><tleParameters><EPHEMERIS_TYPE>0</EPHEMERIS_TYPE><CLASSIFICATION_TYPE>U</CLASSIFICATION_TYPE><NORAD_CAT_ID>40090</NORAD_CAT_ID><ELEMENT_SET_NO>999</ELEMENT_SET_NO><REV_AT_EPOCH>53797</REV_AT_EPOCH><BSTAR>.52865E-3</BSTAR><MEAN_MOTION_DOT>.2158E-4</MEAN_MOTION_DOT><MEAN_MOTION_DDOT>0</MEAN_MOTION_DDOT></tleParameters></data></segment></body></omm>

</ndm>
