ORBCOMM FM37            
1 33064U 08031E   24241.41097939  .00004450  00000+0  65020-3 0  9991
2 33064  48.4398 293.1512 0005710 210.4360 163.4958 14.77210697870720
ORBCOMM FM109           
1 40086U 14040A   24241.51544782  .00003027  00000+0  70289-3 0  9996
2 40086  47.0037 317.5045 0001203  12.6557 347.4358 14.57043401538366
ORBCOMM FM107           
1 40087U 14040B   24241.48088212  .00001883  00000+0  45158-3 0  9999
2 40087  47.0065 318.6480 0001445 329.8270  30.2532 14.57014734538432
ORBCOMM FM106           
1 40088U 14040C   24241.50470027  .00003792  00000+0  69171-3 0  9994
2 40088  47.0596 163.4853 0017334 148.5185 211.6746 14.67577714540457
ORBCOMM FM111           
1 40089U 14040D   24241.16731513  .00007658  00000+0  95385-3 0  9998
2 40089  47.0044  53.0084 0033621 232.8219 126.9606 14.82704755546686
ORBCOMM FM104           
1 40090U 14040E   24241.56693552  .00002158  00000+0  52865-3 0  9990
2 40090  47.0072 348.4124 0017601 305.7769  54.1479 14.55473737537970
